NORAD_CAT_ID,OBJECT_NAME,OBJECT_TYPE,EPOCH,MEAN_MOTION,ECCENTRICITY,INCLINATION,RA_OF_ASC_NODE,ARG_OF_PERICENTER,MEAN_ANOMALY,BSTAR,MEAN_MOTION_DOT,MEAN_MOTION_DDOT,TLE_LINE0,TLE_LINE1,TLE_LINE2,SEMIMAJOR_AXIS,PERIOD,APOGEE,PERIGEE,DECAYED
53591.0,STARLINK-4674,PAYLOAD,2024-04-29 19:16:36,15.08838553,0.0001827,53.218,51.9284,81.3124,278.8075,0.00034811,5.256e-05,0.0,0 STARLINK-4674,1 53591U 22104D   24120.80320596  .00005256  00000-0  34811-3 0  9992,2 53591  53.2180  51.9284 0001827  81.3124 278.8075 15.08838553 93476,6917.885,95.438,541.014,538.486,0.0
53591.0,STARLINK-4674,PAYLOAD,2024-04-30 12:45:51,15.08844118,0.0001219,53.2158,48.6577,77.5783,282.5345,0.00016853,2.396e-05,0.0,0 STARLINK-4674,1 53591U 22104D   24121.53184083  .00002396  00000-0  16853-3 0  9990,2 53591  53.2158  48.6577 0001219  77.5783 282.5345 15.08844118 93580,6917.868,95.437,540.576,538.89,0.0
53591.0,STARLINK-4674,PAYLOAD,2024-04-30 22:18:10,15.08840628,0.0001399,53.2165,46.8731,86.0088,274.1064,6.3232e-05,7.19e-06,0.0,0 STARLINK-4674,1 53591U 22104D   24121.92928265  .00000719  00000-0  63232-4 0  9992,2 53591  53.2165  46.8731 0001399  86.0088 274.1064 15.08840628 93646,6917.878,95.438,540.711,538.776,0.0
53591.0,STARLINK-4674,PAYLOAD,2024-05-01 01:28:56,15.08843901,0.0001373,53.2181,46.2778,86.5083,273.6066,0.00012928,1.77e-05,0.0,0 STARLINK-4674,1 53591U 22104D   24122.06176190  .00001770  00000-0  12928-3 0  9993,2 53591  53.2181  46.2778 0001373  86.5083 273.6066 15.08843901 92621,6917.868,95.437,540.683,538.784,0.0
53591.0,STARLINK-4674,PAYLOAD,2024-05-01 18:58:10,15.08850863,0.0001696,53.2182,43.0076,87.1401,272.9785,0.00020853,3.033e-05,0.0,0 STARLINK-4674,1 53591U 22104D   24122.79039736  .00003033  00000-0  20853-3 0  9997,2 53591  53.2182  43.0076 0001696  87.1401 272.9785 15.08850863 93779,6917.847,95.437,540.885,538.539,0.0
53591.0,STARLINK-4674,PAYLOAD,2024-05-02 04:30:28,15.08858241,0.0001556,53.2189,41.2217,100.479,259.6378,0.00030458,4.565e-05,0.0,0 STARLINK-4674,1 53591U 22104D   24123.18783105  .00004565  00000-0  30458-3 0  9990,2 53591  53.2189  41.2217 0001556 100.4790 259.6378 15.08858241 92797,6917.825,95.436,540.766,538.613,0.0
53591.0,STARLINK-4674,PAYLOAD,2024-05-02 18:48:57,15.08840005,0.0001055,53.2187,38.545,90.7768,269.3345,1.6493e-05,-2.5e-07,0.0,0 STARLINK-4674,1 53591U 22104D   24123.78399730 -.00000025  00000-0  16493-4 0  9995,2 53591  53.2187  38.5450 0001055  90.7768 269.3345 15.08840005 92884,6917.88,95.438,540.475,539.016,0.0
53591.0,STARLINK-4674,PAYLOAD,2024-05-03 01:10:29,15.08851995,0.0001146,53.2174,37.3566,91.4734,268.6389,0.00022693,3.327e-05,0.0,0 STARLINK-4674,1 53591U 22104D   24124.04895196  .00003327  00000-0  22693-3 0  9997,2 53591  53.2174  37.3566 0001146  91.4734 268.6389 15.08851995 92922,6917.844,95.437,540.502,538.916,0.0
53591.0,STARLINK-4674,PAYLOAD,2024-05-03 10:42:48,15.08846812,9.52e-05,53.2171,35.5729,90.7567,269.3534,0.00019389,2.8e-05,0.0,0 STARLINK-4674,1 53591U 22104D   24124.44639222  .00002800  00000-0  19389-3 0  9990,2 53591  53.2171  35.5729 0000952  90.7567 269.3534 15.08846812 94025,6917.86,95.437,540.383,539.066,0.0
53591.0,STARLINK-4674,PAYLOAD,2024-05-03 18:39:44,15.08814195,0.0001358,53.2173,34.0849,65.8271,294.2863,-0.00047839,-7.888e-05,0.0,0 STARLINK-4674,1 53591U 22104D   24124.77760348 -.00007888  00000-0 -47839-3 0  9994,2 53591  53.2173  34.0849 0001358  65.8271 294.2863 15.08814195 93031,6917.959,95.439,540.764,538.885,0.0
53591.0,STARLINK-4674,PAYLOAD,2024-05-03 21:50:31,15.08811482,0.0001194,53.218,33.4905,63.6985,296.413,-0.00039524,-6.568e-05,0.0,0 STARLINK-4674,1 53591U 22104D   24124.91008649 -.00006568  00000-0 -39524-3 0  9995,2 53591  53.2180  33.4905 0001194  63.6985 296.4130 15.08811482 94095,6917.968,95.439,540.659,539.007,0.0
53591.0,STARLINK-4674,PAYLOAD,2024-05-04 10:33:37,15.08820935,0.0001136,53.2188,31.1124,84.5217,275.5905,0.00064319,9.958e-05,0.0,0 STARLINK-4674,1 53591U 22104D   24125.44001368  .00009958  00000-0  64319-3 0  9999,2 53591  53.2188  31.1124 0001136  84.5217 275.5905 15.08820935 93132,6917.939,95.439,540.59,539.018,0.0
53591.0,STARLINK-4674,PAYLOAD,2024-05-05 04:02:51,15.08859736,9.7e-05,53.218,27.8427,80.1969,279.9133,0.0015071,0.00023792,0.0,0 STARLINK-4674,1 53591U 22104D   24126.16865192  .00023792  00000-0  15071-2 0  9994,2 53591  53.2180  27.8427 0000970  80.1969 279.9133 15.08859736 93247,6917.82,95.436,540.356,539.014,0.0
53591.0,STARLINK-4674,PAYLOAD,2024-05-05 21:32:05,15.0886462,0.0001057,53.2185,24.5713,83.0093,277.1019,0.0010699,0.00016792,0.0,0 STARLINK-4674,1 53591U 22104D   24126.89728562  .00016792  00000-0  10699-2 0  9996,2 53591  53.2185  24.5713 0001057  83.0093 277.1019 15.08864620 94399,6917.805,95.436,540.401,538.939,0.0
53591.0,STARLINK-4674,PAYLOAD,2024-05-06 02:18:14,15.08878395,0.0001079,53.2185,23.6784,88.2175,271.8941,0.0012008,0.00018894,0.0,0 STARLINK-4674,1 53591U 22104D   24127.09600019  .00018894  00000-0  12008-2 0  9996,2 53591  53.2185  23.6784 0001079  88.2175 271.8941 15.08878395 93386,6917.763,95.435,540.374,538.882,0.0
53591.0,STARLINK-4674,PAYLOAD,2024-05-06 10:15:10,15.08865694,0.0001487,53.2187,22.1917,75.2576,284.8581,0.00069874,0.00010858,0.0,0 STARLINK-4674,1 53591U 22104D   24127.42720093  .00010858  00000-0  69874-3 0  9994,2 53591  53.2187  22.1917 0001487  75.2576 284.8581 15.08865694 93432,6917.802,95.436,540.696,538.638,0.0
53591.0,STARLINK-4674,PAYLOAD,2024-05-06 21:22:51,15.08861884,0.0001915,53.2168,20.1096,87.3196,272.8015,0.00070025,0.00010881,0.0,0 STARLINK-4674,1 53591U 22104D   24127.89087798  .00010881  00000-0  70025-3 0  9999,2 53591  53.2168  20.1096 0001915  87.3196 272.8015 15.08861884 93509,6917.813,95.436,541.003,538.354,0.0
53591.0,STARLINK-4674,PAYLOAD,2024-05-06 22:58:14,15.08854666,0.0001092,53.2156,19.8134,74.6014,285.5098,0.00033379,5.031e-05,0.0,0 STARLINK-4674,1 53591U 22104D   24127.95711609  .00005031  00000-0  33379-3 0  9993,2 53591  53.2156  19.8134 0001092  74.6014 285.5098 15.08854666 94556,6917.836,95.437,540.456,538.945,0.0
53591.0,STARLINK-4674,PAYLOAD,2024-05-07 10:05:56,15.0885267,0.0001379,53.2197,17.7339,70.9411,289.173,0.00024494,3.614e-05,0.0,0 STARLINK-4674,1 53591U 22104D   24128.42079608  .00003614  00000-0  24494-3 0  9995,2 53591  53.2197  17.7339 0001379  70.9411 289.1730 15.08852670 93581,6917.842,95.437,540.661,538.753,0.0
53591.0,STARLINK-4674,PAYLOAD,2024-05-07 21:13:39,15.08838807,0.0001482,53.2189,15.6494,91.5649,268.5513,-6.814e-05,-1.372e-05,0.0,0 STARLINK-4674,1 53591U 22104D   24128.88448094 -.00001372  00000-0 -68140-4 0  9992,2 53591  53.2189  15.6494 0001482  91.5649 268.5513 15.08838807 93652,6917.884,95.438,540.774,538.724,0.0
53591.0,STARLINK-4674,PAYLOAD,2024-05-08 09:56:44,15.0884081,0.0001198,53.2188,13.2704,94.5364,265.5765,8.376e-05,1.045e-05,0.0,0 STARLINK-4674,1 53591U 22104D   24129.41440298  .00001045  00000-0  83760-4 0  9990,2 53591  53.2188  13.2704 0001198  94.5364 265.5765 15.08840810 94777,6917.878,95.438,540.572,538.914,0.0
53591.0,STARLINK-4674,PAYLOAD,2024-05-08 22:39:49,15.08848422,0.0001145,53.2185,10.8911,91.1874,268.925,0.00043722,6.679e-05,0.0,0 STARLINK-4674,1 53591U 22104D   24129.94432187  .00006679  00000-0  43722-3 0  9997,2 53591  53.2185  10.8911 0001145  91.1874 268.9250 15.08848422 94850,6917.855,95.437,540.512,538.928,0.0
53591.0,STARLINK-4674,PAYLOAD,2024-05-09 01:50:35,15.08852273,0.0001204,53.2185,10.2962,93.6376,266.4754,0.00054636,8.421e-05,0.0,0 STARLINK-4674,1 53591U 22104D   24130.07680110  .00008421  00000-0  54636-3 0  9997,2 53591  53.2185  10.2962 0001204  93.6376 266.4754 15.08852273 93838,6917.843,95.437,540.541,538.875,0.0
53591.0,STARLINK-4674,PAYLOAD,2024-05-09 20:55:13,15.0884452,0.0001283,53.2183,6.7259,100.1273,259.9864,0.00028794,4.298e-05,0.0,0 STARLINK-4674,1 53591U 22104D   24130.87168403  .00004298  00000-0  28794-3 0  9995,2 53591  53.2183   6.7259 0001283 100.1273 259.9864 15.08844520 93950,6917.867,95.437,540.619,538.844,0.0
53591.0,STARLINK-4674,PAYLOAD,2024-05-09 22:30:36,15.08844955,0.0001202,53.2185,6.4281,105.2804,254.8321,0.0002267,3.322e-05,0.0,0 STARLINK-4674,1 53591U 22104D   24130.93792270  .00003322  00000-0  22670-3 0  9991,2 53591  53.2185   6.4281 0001202 105.2804 254.8321 15.08844955 95003,6917.865,95.437,540.562,538.899,0.0
53591.0,STARLINK-4674,PAYLOAD,2024-05-10 14:24:28,15.08830228,0.0001274,53.2186,3.4543,132.978,227.1319,-3.2166e-05,-8e-06,0.0,0 STARLINK-4674,1 53591U 22104D   24131.60033058 -.00000800  00000-0 -32166-4 0  9990,2 53591  53.2186   3.4543 0001274 132.9780 227.1319 15.08830228 95100,6917.91,95.438,540.657,538.894,0.0
53591.0,STARLINK-4674,PAYLOAD,2024-05-10 20:46:00,15.0884034,0.0001586,53.2185,2.2669,122.9979,237.1166,7.0521e-05,8.35e-06,0.0,0 STARLINK-4674,1 53591U 22104D   24131.86528655  .00000835  00000-0  70521-4 0  9993,2 53591  53.2185   2.2669 0001586 122.9979 237.1166 15.08840340 94106,6917.879,95.438,540.842,538.647,0.0
53591.0,STARLINK-4674,PAYLOAD,2024-05-10 22:21:23,15.08844443,0.0001346,53.2185,1.9703,113.0839,247.0295,5.8526e-05,6.44e-06,0.0,0 STARLINK-4674,1 53591U 22104D   24131.93152415  .00000644  00000-0  58526-4 0  9997,2 53591  53.2185   1.9703 0001346 113.0839 247.0295 15.08844443 95158,6917.867,95.437,540.663,538.801,0.0
53591.0,STARLINK-4674,PAYLOAD,2024-05-11 22:12:09,15.08801186,0.0001271,53.2183,357.5097,95.9257,264.188,-0.0017336,-0.00027743,0.0,0 STARLINK-4674,1 53591U 22104D   24132.92511554 -.00027743  00000-0 -17336-2 0  9993,2 53591  53.2183 357.5097 0001271  95.9257 264.1880 15.08801186 95305,6917.999,95.44,540.743,538.985,0.0
53591.0,STARLINK-4674,PAYLOAD,2024-05-12 01:22:56,15.08794103,0.0001365,53.2181,356.9159,99.411,260.7036,-0.0018032,-0.00028835,0.0,0 STARLINK-4674,1 53591U 22104D   24133.05760004 -.00028835  00000-0 -18032-2 0  9991,2 53591  53.2181 356.9159 0001365  99.4110 260.7036 15.08794103 94287,6918.021,95.44,540.83,538.941,0.0
